{"type": "FeatureCollection", "features": [ {"type": "Feature", "properties": {"norad_id": 66838, "name": "STARLINK-35886", "group": "last-30-days", "lat": 51.07216397819171, "lon": -15.795169420104093, "alt_km": 352.6363383629505, "timestamp": "2025-12-15T11:38:35.907109+00:00", "meta": {"OBJECT_NAME": "STARLINK-35886", "OBJECT_ID": "2025-280T", "EPOCH": "2025-12-14T20:00:06.000192", "MEAN_MOTION": 15.73303054, "ECCENTRICITY": 0.00038013, "INCLINATION": 69.9956, "RA_OF_ASC_NODE": 192.8543, "ARG_OF_PERICENTER": 277.7077, "MEAN_ANOMALY": 118.8286, "EPHEMERIS_TYPE": 0, "CLASSIFICATION_TYPE": "U", "NORAD_CAT_ID": 66838, "ELEMENT_SET_NO": 999, "REV_AT_EPOCH": 323, "BSTAR": -0.013183423, "MEAN_MOTION_DOT": -0.01625427, "MEAN_MOTION_DDOT": 0}, "tle": {"line1": "1 66838U 25280T   25348.83340278 -.01625427  00000+0 -13183-1 0  9990", "line2": "2 66838  69.9956 192.8543 0003801 277.7077 118.8286 15.73303054  3231"}}, "geometry": {"type": "Point", "coordinates": [-15.795169420104093, 51.07216397819171]}}, {"type": "Feature", "properties": {"norad_id": 66839, "name": "STARLINK-35717", "group": "last-30-days", "lat": 52.659423144110164, "lon": -17.505861828879052, "alt_km": 352.53500180845185, "timestamp": "2025-12-15T11:38:35.907119+00:00", "meta": {"OBJECT_NAME": "STARLINK-35717", "OBJECT_ID": "2025-280U", "EPOCH": "2025-12-14T20:00:06.000192", "MEAN_MOTION": 15.73304732, "ECCENTRICITY": 0.00040185, "INCLINATION": 69.9956, "RA_OF_ASC_NODE": 192.8567, "ARG_OF_PERICENTER": 278.7643, "MEAN_ANOMALY": 115.8298, "EPHEMERIS_TYPE": 0, "CLASSIFICATION_TYPE": "U", "NORAD_CAT_ID": 66839, "ELEMENT_SET_NO": 999, "REV_AT_EPOCH": 323, "BSTAR": -0.013013845, "MEAN_MOTION_DOT": -0.01607085, "MEAN_MOTION_DDOT": 0}, "tle": {"line1": "1 66839U 25280U   25348.83340278 -.01607085  00000+0 -13014-1 0  9994", "line2": "2 66839  69.9956 192.8567 0004018 278.7643 115.8298 15.73304732  3233"}}, "geometry": {"type": "Point", "coordinates": [-17.505861828879052, 52.659423144110164]}}, {"type": "Feature", "properties": {"norad_id": 66840, "name": "STARLINK-35837", "group": "last-30-days", "lat": 49.458142598122464, "lon": -14.195706218180964, "alt_km": 352.88250253681963, "timestamp": "2025-12-15T11:38:35.907128+00:00", "meta": {"OBJECT_NAME": "STARLINK-35837", "OBJECT_ID": "2025-280V", "EPOCH": "2025-12-14T20:00:06.000192", "MEAN_MOTION": 15.73294613, "ECCENTRICITY": 0.00038319, "INCLINATION": 69.9956, "RA_OF_ASC_NODE": 192.8519, "ARG_OF_PERICENTER": 278.9315, "MEAN_ANOMALY": 119.5278, "EPHEMERIS_TYPE": 0, "CLASSIFICATION_TYPE": "U", "NORAD_CAT_ID": 66840, "ELEMENT_SET_NO": 999, "REV_AT_EPOCH": 323, "BSTAR": -0.013160376, "MEAN_MOTION_DOT": -0.01622399, "MEAN_MOTION_DDOT": 0}, "tle": {"line1": "1 66840U 25280V   25348.83340278 -.01622399  00000+0 -13160-1 0  9993", "line2": "2 66840  69.9956 192.8519 0003831 278.9315 119.5278 15.73294613  3237"}}, "geometry": {"type": "Point", "coordinates": [-14.195706218180964, 49.458142598122464]}}, {"type": "Feature", "properties": {"norad_id": 66841, "name": "STARLINK-35715", "group": "last-30-days", "lat": 47.81244357880439, "lon": -12.689635070813342, "alt_km": 352.9626523295974, "timestamp": "2025-12-15T11:38:35.907140+00:00", "meta": {"OBJECT_NAME": "STARLINK-35715", "OBJECT_ID": "2025-280W", "EPOCH": "2025-12-14T20:00:06.000192", "MEAN_MOTION": 15.73303131, "ECCENTRICITY": 0.00035945, "INCLINATION": 69.9957, "RA_OF_ASC_NODE": 192.8491, "ARG_OF_PERICENTER": 280.2456, "MEAN_ANOMALY": 120.125, "EPHEMERIS_TYPE": 0, "CLASSIFICATION_TYPE": "U", "NORAD_CAT_ID": 66841, "ELEMENT_SET_NO": 999, "REV_AT_EPOCH": 323, "BSTAR": -0.013212788, "MEAN_MOTION_DOT": -0.01628474, "MEAN_MOTION_DDOT": 0}, "tle": {"line1": "1 66841U 25280W   25348.83340278 -.01628474  00000+0 -13213-1 0  9993", "line2": "2 66841  69.9957 192.8491 0003594 280.2456 120.1250 15.73303131  3230"}}, "geometry": {"type": "Point", "coordinates": [-12.689635070813342, 47.81244357880439]}}, {"type": "Feature", "properties": {"norad_id": 66842, "name": "STARLINK-35769", "group": "last-30-days", "lat": 46.15445049909449, "lon": -11.281611718954078, "alt_km": 353.10746195101274, "timestamp": "2025-12-15T11:38:35.907155+00:00", "meta": {"OBJECT_NAME": "STARLINK-35769", "OBJECT_ID": "2025-280X", "EPOCH": "2025-12-14T20:00:06.000192", "MEAN_MOTION": 15.73300092, "ECCENTRICITY": 0.00036005, "INCLINATION": 69.9958, "RA_OF_ASC_NODE": 192.8466, "ARG_OF_PERICENTER": 277.3143, "MEAN_ANOMALY": 124.9766, "EPHEMERIS_TYPE": 0, "CLASSIFICATION_TYPE": "U", "NORAD_CAT_ID": 66842, "ELEMENT_SET_NO": 999, "REV_AT_EPOCH": 323, "BSTAR": -0.013196105, "MEAN_MOTION_DOT": -0.01626459, "MEAN_MOTION_DDOT": 0}, "tle": {"line1": "1 66842U 25280X   25348.83340278 -.01626459  00000+0 -13196-1 0  9995", "line2": "2 66842  69.9958 192.8466 0003600 277.3143 124.9766 15.73300092  3239"}}, "geometry": {"type": "Point", "coordinates": [-11.281611718954078, 46.15445049909449]}}, {"type": "Feature", "properties": {"norad_id": 66843, "name": "STARLINK-35997", "group": "last-30-days", "lat": 42.76654510752318, "lon": -8.689196801919932, "alt_km": 353.16496766272576, "timestamp": "2025-12-15T11:38:35.907171+00:00", "meta": {"OBJECT_NAME": "STARLINK-35997", "OBJECT_ID": "2025-280Y", "EPOCH": "2025-12-14T20:00:06.000192", "MEAN_MOTION": 15.73326922, "ECCENTRICITY": 0.00030845, "INCLINATION": 69.9952, "RA_OF_ASC_NODE": 192.8415, "ARG_OF_PERICENTER": 278.6574, "MEAN_ANOMALY": 127.4113, "EPHEMERIS_TYPE": 0, "CLASSIFICATION_TYPE": "U", "NORAD_CAT_ID": 66843, "ELEMENT_SET_NO": 999, "REV_AT_EPOCH": 323, "BSTAR": -0.013119848, "MEAN_MOTION_DOT": -0.01619331, "MEAN_MOTION_DDOT": 0}, "tle": {"line1": "1 66843U 25280Y   25348.83340278 -.01619331  00000+0 -13120-1 0  9994", "line2": "2 66843  69.9952 192.8415 0003084 278.6574 127.4113 15.73326922  3230"}}, "geometry": {"type": "Point", "coordinates": [-8.689196801919932, 42.76654510752318]}}, {"type": "Feature", "properties": {"norad_id": 66844, "name": "STARLINK-36073", "group": "last-30-days", "lat": 44.457298852608886, "lon": -9.93929535472836, "alt_km": 352.99999482970907, "timestamp": "2025-12-15T11:38:35.907181+00:00", "meta": {"OBJECT_NAME": "STARLINK-36073", "OBJECT_ID": "2025-280Z", "EPOCH": "2025-12-14T20:00:06.000192", "MEAN_MOTION": 15.73327948, "ECCENTRICITY": 0.00030656, "INCLINATION": 69.9956, "RA_OF_ASC_NODE": 192.8443, "ARG_OF_PERICENTER": 281.8057, "MEAN_ANOMALY": 122.3471, "EPHEMERIS_TYPE": 0, "CLASSIFICATION_TYPE": "U", "NORAD_CAT_ID": 66844, "ELEMENT_SET_NO": 999, "REV_AT_EPOCH": 323, "BSTAR": -0.013143663, "MEAN_MOTION_DOT": -0.01621995, "MEAN_MOTION_DDOT": 0}, "tle": {"line1": "1 66844U 25280Z   25348.83340278 -.01621995  00000+0 -13144-1 0  9990", "line2": "2 66844  69.9956 192.8443 0003065 281.8057 122.3471 15.73327948  3237"}}, "geometry": {"type": "Point", "coordinates": [-9.93929535472836, 44.457298852608886]}}, {"type": "Feature", "properties": {"norad_id": 66845, "name": "STARLINK-36068", "group": "last-30-days", "lat": 37.64021668233253, "lon": -5.32169907786222, "alt_km": 353.8968551699545, "timestamp": "2025-12-15T11:38:35.907190+00:00", "meta": {"OBJECT_NAME": "STARLINK-36068", "OBJECT_ID": "2025-280AA", "EPOCH": "2025-12-14T20:00:06.000192", "MEAN_MOTION": 15.73299495, "ECCENTRICITY": 0.00031046, "INCLINATION": 69.9952, "RA_OF_ASC_NODE": 192.8347, "ARG_OF_PERICENTER": 276.5239, "MEAN_ANOMALY": 135.3445, "EPHEMERIS_TYPE": 0, "CLASSIFICATION_TYPE": "U", "NORAD_CAT_ID": 66845, "ELEMENT_SET_NO": 999, "REV_AT_EPOCH": 323, "BSTAR": -0.013154416, "MEAN_MOTION_DOT": -0.01621437, "MEAN_MOTION_DDOT": 0}, "tle": {"line1": "1 66845U 25280AA  25348.83340278 -.01621437  00000+0 -13154-1 0  9993", "line2": "2 66845  69.9952 192.8347 0003104 276.5239 135.3445 15.73299495  3234"}}, "geometry": {"type": "Point", "coordinates": [-5.32169907786222, 37.64021668233253]}}, {"type": "Feature", "properties": {"norad_id": 66846, "name": "STARLINK-36055", "group": "last-30-days", "lat": 41.08452678168123, "lon": -7.519187021598995, "alt_km": 353.5131338506726, "timestamp": "2025-12-15T11:38:35.907200+00:00", "meta": {"OBJECT_NAME": "STARLINK-36055", "OBJECT_ID": "2025-280AB", "EPOCH": "2025-12-14T20:00:06.000192", "MEAN_MOTION": 15.73299894, "ECCENTRICITY": 0.0003257, "INCLINATION": 69.9954, "RA_OF_ASC_NODE": 192.8393, "ARG_OF_PERICENTER": 275.4876, "MEAN_ANOMALY": 132.5524, "EPHEMERIS_TYPE": 0, "CLASSIFICATION_TYPE": "U", "NORAD_CAT_ID": 66846, "ELEMENT_SET_NO": 999, "REV_AT_EPOCH": 323, "BSTAR": -0.013196637, "MEAN_MOTION_DOT": -0.01626217, "MEAN_MOTION_DDOT": 0}, "tle": {"line1": "1 66846U 25280AB  25348.83340278 -.01626217  00000+0 -13197-1 0  9992", "line2": "2 66846  69.9954 192.8393 0003257 275.4876 132.5524 15.73299894  3232"}}, "geometry": {"type": "Point", "coordinates": [-7.519187021598995, 41.08452678168123]}}, {"type": "Feature", "properties": {"norad_id": 66847, "name": "STARLINK-36061", "group": "last-30-days", "lat": 39.36785918488804, "lon": -6.393492546884983, "alt_km": 353.693814962603, "timestamp": "2025-12-15T11:38:35.907210+00:00", "meta": {"OBJECT_NAME": "STARLINK-36061", "OBJECT_ID": "2025-280AC", "EPOCH": "2025-12-14T20:00:06.000192", "MEAN_MOTION": 15.7330144, "ECCENTRICITY": 0.00031158, "INCLINATION": 69.9952, "RA_OF_ASC_NODE": 192.8371, "ARG_OF_PERICENTER": 277.3602, "MEAN_ANOMALY": 132.5874, "EPHEMERIS_TYPE": 0, "CLASSIFICATION_TYPE": "U", "NORAD_CAT_ID": 66847, "ELEMENT_SET_NO": 999, "REV_AT_EPOCH": 318, "BSTAR": -0.013169559, "MEAN_MOTION_DOT": -0.01623228, "MEAN_MOTION_DDOT": 0}, "tle": {"line1": "1 66847U 25280AC  25348.83340278 -.01623228  00000+0 -13170-1 0  9993", "line2": "2 66847  69.9952 192.8371 0003115 277.3602 132.5874 15.73301440  3181"}}, "geometry": {"type": "Point", "coordinates": [-6.393492546884983, 39.36785918488804]}}]}